{
    "links": {
        "self": "http://www.neowsapp.com/rest/v1/neo/54049355?api_key=iIulBulltgU6a56xZRHN4H3l9WmuAYTsLGpBGhQ2"
    },
    "id": "54049355",
    "neo_reference_id": "54049355",
    "name": "(2020 OO3)",
    "designation": "2020 OO3",
    "nasa_jpl_url": "http://ssd.jpl.nasa.gov/sbdb.cgi?sstr=54049355",
    "absolute_magnitude_h": 23.77,
    "estimated_diameter": {
        "kilometers": {
            "estimated_diameter_min": 0.0468333233,
            "estimated_diameter_max": 0.1047224945
        },
        "meters": {
            "estimated_diameter_min": 46.8333233136,
            "estimated_diameter_max": 104.7224945415
        },
        "miles": {
            "estimated_diameter_min": 0.0291008689,
            "estimated_diameter_max": 0.0650715212
        },
        "feet": {
            "estimated_diameter_min": 153.6526404603,
            "estimated_diameter_max": 343.5777489915
        }
    },
    "is_potentially_hazardous_asteroid": false,
    "close_approach_data": [
        {
            "close_approach_date": "2020-07-14",
            "close_approach_date_full": "2020-Jul-14 01:13",
            "epoch_date_close_approach": 1594689180000,
            "relative_velocity": {
                "kilometers_per_second": "6.1687028663",
                "kilometers_per_hour": "22207.3303187876",
                "miles_per_hour": "13798.7714416933"
            },
            "miss_distance": {
                "astronomical": "0.2389090753",
                "lunar": "92.9356302917",
                "kilometers": "35740288.788549611",
                "miles": "22207985.6552261918"
            },
            "orbiting_body": "Earth"
        },
        {
            "close_approach_date": "2025-06-26",
            "close_approach_date_full": "2025-Jun-26 00:00",
            "epoch_date_close_approach": 1750896000000,
            "relative_velocity": {
                "kilometers_per_second": "7.1662234125",
                "kilometers_per_hour": "25798.4042850607",
                "miles_per_hour": "16030.125151459"
            },
            "miss_distance": {
                "astronomical": "0.1908659839",
                "lunar": "74.2468677371",
                "kilometers": "28553144.646894293",
                "miles": "17742101.3714075234"
            },
            "orbiting_body": "Earth"
        }
    ],
    "orbital_data": {
        "orbit_id": "1",
        "orbit_determination_date": "2020-07-24 15:42:06",
        "first_observation_date": "2020-07-18",
        "last_observation_date": "2020-07-24",
        "data_arc_in_days": 6,
        "observations_used": 11,
        "orbit_uncertainty": "7",
        "minimum_orbit_intersection": ".157032",
        "jupiter_tisserand_invariant": "4.678",
        "epoch_osculation": "2459000.5",
        "eccentricity": ".1900615443622891",
        "semi_major_axis": "1.415357201203555",
        "inclination": "12.10897593587436",
        "ascending_node_longitude": "112.3141296154725",
        "orbital_period": "615.0317204334856",
        "perihelion_distance": "1.14635222571852",
        "perihelion_argument": "141.1988083485787",
        "aphelion_distance": "1.68436217668859",
        "perihelion_time": "2458990.334370674193",
        "mean_anomaly": "5.950305383779749",
        "mean_motion": ".5853356632504506",
        "equinox": "J2000",
        "orbit_class": {
            "orbit_class_type": "AMO",
            "orbit_class_description": "Near-Earth asteroid orbits similar to that of 1221 Amor",
            "orbit_class_range": "1.017 AU < q (perihelion) < 1.3 AU"
        }
    },
    "is_sentry_object": false
}